{"type": "FeatureCollection", "features": [ {"type": "Feature", "properties": {"norad_id": 34529, "name": "IRIDIUM 33 DEB", "group": "iridium-33-debris", "lat": -5.988337635154031, "lon": -147.4021534071032, "alt_km": 756.8060531957135, "timestamp": "2025-12-20T05:41:50.416034+00:00", "meta": {"OBJECT_NAME": "IRIDIUM 33 DEB", "OBJECT_ID": "1997-051HW", "EPOCH": "2025-12-19T20:30:08.657568", "MEAN_MOTION": 14.40621055, "ECCENTRICITY": 0.00056574, "INCLINATION": 86.3633, "RA_OF_ASC_NODE": 32.3789, "ARG_OF_PERICENTER": 155.7625, "MEAN_ANOMALY": 204.3842, "EPHEMERIS_TYPE": 0, "CLASSIFICATION_TYPE": "U", "NORAD_CAT_ID": 34529, "ELEMENT_SET_NO": 999, "REV_AT_EPOCH": 88244, "BSTAR": 8.5074223e-05, "MEAN_MOTION_DOT": 2.91e-06, "MEAN_MOTION_DDOT": 0}, "tle": {"line1": "1 34529U 97051HW  25353.85426687  .00000291  00000+0  85074-4 0  9998", "line2": "2 34529  86.3633  32.3789 0005657 155.7625 204.3842 14.40621055882447"}}, "geometry": {"type": "Point", "coordinates": [-147.4021534071032, -5.988337635154031]}}, {"type": "Feature", "properties": {"norad_id": 34538, "name": "IRIDIUM 33 DEB", "group": "iridium-33-debris", "lat": 77.90708817693138, "lon": 19.969680223203454, "alt_km": 758.9858191333396, "timestamp": "2025-12-20T05:41:50.416044+00:00", "meta": {"OBJECT_NAME": "IRIDIUM 33 DEB", "OBJECT_ID": "1997-051JF", "EPOCH": "2025-12-19T11:38:01.114368", "MEAN_MOTION": 14.42685195, "ECCENTRICITY": 0.0032244, "INCLINATION": 86.2759, "RA_OF_ASC_NODE": 2.6015, "ARG_OF_PERICENTER": 304.7784, "MEAN_ANOMALY": 186.9228, "EPHEMERIS_TYPE": 0, "CLASSIFICATION_TYPE": "U", "NORAD_CAT_ID": 34538, "ELEMENT_SET_NO": 999, "REV_AT_EPOCH": 87853, "BSTAR": 0.00065883, "MEAN_MOTION_DOT": 2.223e-05, "MEAN_MOTION_DDOT": 0}, "tle": {"line1": "1 34538U 97051JF  25353.48473512  .00002223  00000+0  65883-3 0  9998", "line2": "2 34538  86.2759   2.6015 0032244 304.7784 186.9228 14.42685195878536"}}, "geometry": {"type": "Point", "coordinates": [19.969680223203454, 77.90708817693138]}}, {"type": "Feature", "properties": {"norad_id": 34540, "name": "IRIDIUM 33 DEB", "group": "iridium-33-debris", "lat": -61.308350893784926, "lon": -62.59284922475459, "alt_km": 662.8174760009824, "timestamp": "2025-12-20T05:41:50.416055+00:00", "meta": {"OBJECT_NAME": "IRIDIUM 33 DEB", "OBJECT_ID": "1997-051JH", "EPOCH": "2025-12-19T20:29:06.527328", "MEAN_MOTION": 14.75455566, "ECCENTRICITY": 0.00175023, "INCLINATION": 86.3106, "RA_OF_ASC_NODE": 304.3534, "ARG_OF_PERICENTER": 135.0106, "MEAN_ANOMALY": 285.9801, "EPHEMERIS_TYPE": 0, "CLASSIFICATION_TYPE": "U", "NORAD_CAT_ID": 34540, "ELEMENT_SET_NO": 999, "REV_AT_EPOCH": 89126, "BSTAR": 0.00097623982, "MEAN_MOTION_DOT": 6.676e-05, "MEAN_MOTION_DDOT": 0}, "tle": {"line1": "1 34540U 97051JH  25353.85354777  .00006676  00000+0  97624-3 0  9997", "line2": "2 34540  86.3106 304.3534 0017502 135.0106 285.9801 14.75455566891262"}}, "geometry": {"type": "Point", "coordinates": [-62.59284922475459, -61.308350893784926]}}, {"type": "Feature", "properties": {"norad_id": 34648, "name": "IRIDIUM 33 DEB", "group": "iridium-33-debris", "lat": 15.708665433544809, "lon": 97.90112234108634, "alt_km": 899.7313222363618, "timestamp": "2025-12-20T05:41:50.416065+00:00", "meta": {"OBJECT_NAME": "IRIDIUM 33 DEB", "OBJECT_ID": "1997-051JZ", "EPOCH": "2025-12-18T13:46:37.352352", "MEAN_MOTION": 14.1166623, "ECCENTRICITY": 0.01808845, "INCLINATION": 86.3904, "RA_OF_ASC_NODE": 279.59, "ARG_OF_PERICENTER": 280.6676, "MEAN_ANOMALY": 77.4184, "EPHEMERIS_TYPE": 0, "CLASSIFICATION_TYPE": "U", "NORAD_CAT_ID": 34648, "ELEMENT_SET_NO": 999, "REV_AT_EPOCH": 85043, "BSTAR": 0.0055375481, "MEAN_MOTION_DOT": 0.00011772, "MEAN_MOTION_DDOT": 0}, "tle": {"line1": "1 34648U 97051JZ  25352.57404343  .00011772  00000+0  55375-2 0  9998", "line2": "2 34648  86.3904 279.5900 0180884 280.6676  77.4184 14.11666230850434"}}, "geometry": {"type": "Point", "coordinates": [97.90112234108634, 15.708665433544809]}}, {"type": "Feature", "properties": {"norad_id": 34651, "name": "IRIDIUM 33 DEB", "group": "iridium-33-debris", "lat": -69.54791820608685, "lon": -32.57265492570049, "alt_km": 775.836429104781, "timestamp": "2025-12-20T05:41:50.416093+00:00", "meta": {"OBJECT_NAME": "IRIDIUM 33 DEB", "OBJECT_ID": "1997-051KC", "EPOCH": "2025-12-19T16:44:48.420096", "MEAN_MOTION": 14.25922062, "ECCENTRICITY": 0.01422464, "INCLINATION": 86.2827, "RA_OF_ASC_NODE": 137.6175, "ARG_OF_PERICENTER": 181.9677, "MEAN_ANOMALY": 178.0974, "EPHEMERIS_TYPE": 0, "CLASSIFICATION_TYPE": "U", "NORAD_CAT_ID": 34651, "ELEMENT_SET_NO": 999, "REV_AT_EPOCH": 85995, "BSTAR": 0.0022061693, "MEAN_MOTION_DOT": 5.865e-05, "MEAN_MOTION_DDOT": 0}, "tle": {"line1": "1 34651U 97051KC  25353.69778264  .00005865  00000+0  22062-2 0  9995", "line2": "2 34651  86.2827 137.6175 0142246 181.9677 178.0974 14.25922062859957"}}, "geometry": {"type": "Point", "coordinates": [-32.57265492570049, -69.54791820608685]}}, {"type": "Feature", "properties": {"norad_id": 34652, "name": "IRIDIUM 33 DEB", "group": "iridium-33-debris", "lat": -15.240373883634954, "lon": 157.66430464954846, "alt_km": 686.6924295540666, "timestamp": "2025-12-20T05:41:50.416104+00:00", "meta": {"OBJECT_NAME": "IRIDIUM 33 DEB", "OBJECT_ID": "1997-051KD", "EPOCH": "2025-12-19T17:51:26.256096", "MEAN_MOTION": 14.62117993, "ECCENTRICITY": 0.00255284, "INCLINATION": 86.331, "RA_OF_ASC_NODE": 336.8822, "ARG_OF_PERICENTER": 272.5866, "MEAN_ANOMALY": 207.7977, "EPHEMERIS_TYPE": 0, "CLASSIFICATION_TYPE": "U", "NORAD_CAT_ID": 34652, "ELEMENT_SET_NO": 999, "REV_AT_EPOCH": 88586, "BSTAR": 0.00063186757, "MEAN_MOTION_DOT": 3.211e-05, "MEAN_MOTION_DDOT": 0}, "tle": {"line1": "1 34652U 97051KD  25353.74405389  .00003211  00000+0  63187-3 0  9994", "line2": "2 34652  86.3310 336.8822 0025528 272.5866 207.7977 14.62117993885860"}}, "geometry": {"type": "Point", "coordinates": [157.66430464954846, -15.240373883634954]}}, {"type": "Feature", "properties": {"norad_id": 34690, "name": "IRIDIUM 33 DEB", "group": "iridium-33-debris", "lat": -49.913156194077665, "lon": -141.95071918214683, "alt_km": 720.9886272609647, "timestamp": "2025-12-20T05:41:50.416115+00:00", "meta": {"OBJECT_NAME": "IRIDIUM 33 DEB", "OBJECT_ID": "1997-051KM", "EPOCH": "2025-12-19T02:30:15.635232", "MEAN_MOTION": 14.55118004, "ECCENTRICITY": 0.00100928, "INCLINATION": 86.3778, "RA_OF_ASC_NODE": 34.2255, "ARG_OF_PERICENTER": 8.472, "MEAN_ANOMALY": 50.0408, "EPHEMERIS_TYPE": 0, "CLASSIFICATION_TYPE": "U", "NORAD_CAT_ID": 34690, "ELEMENT_SET_NO": 999, "REV_AT_EPOCH": 88187, "BSTAR": 0.00032814485, "MEAN_MOTION_DOT": 1.438e-05, "MEAN_MOTION_DDOT": 0}, "tle": {"line1": "1 34690U 97051KM  25353.10434763  .00001438  00000+0  32814-3 0  9996", "line2": "2 34690  86.3778  34.2255 0010092   8.4720  50.0408 14.55118004881875"}}, "geometry": {"type": "Point", "coordinates": [-141.95071918214683, -49.913156194077665]}}, {"type": "Feature", "properties": {"norad_id": 34693, "name": "IRIDIUM 33 DEB", "group": "iridium-33-debris", "lat": 73.98483931649426, "lon": 107.07315759513705, "alt_km": 466.44936691203566, "timestamp": "2025-12-20T05:41:50.416131+00:00", "meta": {"OBJECT_NAME": "IRIDIUM 33 DEB", "OBJECT_ID": "1997-051KQ", "EPOCH": "2025-12-19T21:40:09.433344", "MEAN_MOTION": 15.29576103, "ECCENTRICITY": 0.00124542, "INCLINATION": 86.3023, "RA_OF_ASC_NODE": 300.2612, "ARG_OF_PERICENTER": 40.9264, "MEAN_ANOMALY": 23.8115, "EPHEMERIS_TYPE": 0, "CLASSIFICATION_TYPE": "U", "NORAD_CAT_ID": 34693, "ELEMENT_SET_NO": 999, "REV_AT_EPOCH": 89024, "BSTAR": 0.0029726856, "MEAN_MOTION_DOT": 0.00086209, "MEAN_MOTION_DDOT": 0}, "tle": {"line1": "1 34693U 97051KQ  25353.90288696  .00086209  00000+0  29727-2 0  9996", "line2": "2 34693  86.3023 300.2612 0012454  40.9264  23.8115 15.29576103890246"}}, "geometry": {"type": "Point", "coordinates": [107.07315759513705, 73.98483931649426]}}, {"type": "Feature", "properties": {"norad_id": 34696, "name": "IRIDIUM 33 DEB", "group": "iridium-33-debris", "lat": -76.00814354785929, "lon": 8.496166365487413, "alt_km": 723.6298095230086, "timestamp": "2025-12-20T05:41:50.416142+00:00", "meta": {"OBJECT_NAME": "IRIDIUM 33 DEB", "OBJECT_ID": "1997-051KT", "EPOCH": "2025-12-19T02:26:16.937952", "MEAN_MOTION": 14.65392793, "ECCENTRICITY": 0.00738562, "INCLINATION": 86.184, "RA_OF_ASC_NODE": 24.5618, "ARG_OF_PERICENTER": 146.0479, "MEAN_ANOMALY": 268.8933, "EPHEMERIS_TYPE": 0, "CLASSIFICATION_TYPE": "U", "NORAD_CAT_ID": 34696, "ELEMENT_SET_NO": 999, "REV_AT_EPOCH": 86766, "BSTAR": 0.0030854988, "MEAN_MOTION_DOT": 0.00017409, "MEAN_MOTION_DDOT": 0}, "tle": {"line1": "1 34696U 97051KT  25353.10158493  .00017409  00000+0  30855-2 0  9992", "line2": "2 34696  86.1840  24.5618 0073856 146.0479 268.8933 14.65392793867664"}}, "geometry": {"type": "Point", "coordinates": [8.496166365487413, -76.00814354785929]}}, {"type": "Feature", "properties": {"norad_id": 34765, "name": "IRIDIUM 33 DEB", "group": "iridium-33-debris", "lat": -44.432893261087116, "lon": -146.85631521615085, "alt_km": 754.7064684097841, "timestamp": "2025-12-20T05:41:50.416152+00:00", "meta": {"OBJECT_NAME": "IRIDIUM 33 DEB", "OBJECT_ID": "1997-051LJ", "EPOCH": "2025-12-18T13:21:25.941600", "MEAN_MOTION": 14.40479279, "ECCENTRICITY": 0.00160914, "INCLINATION": 86.3386, "RA_OF_ASC_NODE": 30.2656, "ARG_OF_PERICENTER": 191.4295, "MEAN_ANOMALY": 322.071, "EPHEMERIS_TYPE": 0, "CLASSIFICATION_TYPE": "U", "NORAD_CAT_ID": 34765, "ELEMENT_SET_NO": 999, "REV_AT_EPOCH": 87697, "BSTAR": 0.00029987235, "MEAN_MOTION_DOT": 9.74e-06, "MEAN_MOTION_DDOT": 0}, "tle": {"line1": "1 34765U 97051LJ  25352.55655025  .00000974  00000+0  29987-3 0  9994", "line2": "2 34765  86.3386  30.2656 0016091 191.4295 322.0710 14.40479279876970"}}, "geometry": {"type": "Point", "coordinates": [-146.85631521615085, -44.432893261087116]}}]}